TRANSPORTER-12 OBJECT AZ
1 62656U 25009AZ  26068.71026235  .00016057  00000+0  54903-3 0  9991
2 62656  97.3981 151.9913 0000987  45.3581 314.7740 15.30349724 63792
STARLINK-35491          
1 66113U 25236AD  26068.51550340  .00031995  00000+0  10876-2 0  9990
2 66113  53.1579 104.9837 0001120  75.3909 284.7216 15.30202633 22917
